*******************************************************************************
JPL/HORIZONS               3874 Stuart (1986 TJ1)          2023-Sep-04 11:26:01
Rec #:    3874 (+COV) Soln.date: 2023-Aug-23_14:21:02   # obs: 3891 (1955-2023)
 
IAU76/J2000 helio. ecliptic osc. elements (au, days, deg., period=Julian yrs):
 
  EPOCH=  2457839.5 ! 2017-Mar-27.00 (TDB)         Residual RMS= .24728
   EC= .04928577040715748  QR= 2.55006887675004    TP= 2457265.1842963509
   OM= 277.0126117049317   W=  315.5955215202133   IN= 7.681366338723192
   A= 2.682266444925459    MA= 128.8551825140597   ADIST= 2.814464013100877
   PER= 4.393              N= .22436298            ANGMOM= .028138717
   DAN= 2.58474            DDN= 2.7734             L= 232.8662755
   B= -5.3665566           MOID= 1.54340994        TP= 2015-Aug-30.6842963509
 
Asteroid physical parameters (km, seconds, rotational period in hours):
   GM= n.a.                RAD= 4.2535             ROTPER= 3.14354
   H= 12.65                G= .150                 B-V= n.a.
                           ALBEDO= .322            STYP= n.a.

ASTEROID comments: 
1: soln ref.= JPL#53, OCC=0
2: source=ORB
*******************************************************************************


*******************************************************************************
Ephemeris / API_USER Mon Sep  4 11:26:01 2023 Pasadena, USA      / Horizons
*******************************************************************************
Target body name: 3874 Stuart (1986 TJ1)          {source: JPL#53}
Center body name: Solar System Barycenter (0)     {source: DE441}
Center-site name: BODY CENTER
*******************************************************************************
Start time      : A.D. 2023-Aug-12 00:00:00.0000 TDB
Stop  time      : A.D. 2023-Aug-13 00:00:00.0000 TDB
Step-size       : 2880 minutes
*******************************************************************************
Center geodetic : 0.0, 0.0, 0.0                   {E-lon(deg),Lat(deg),Alt(km)}
Center cylindric: 0.0, 0.0, 0.0                   {E-lon(deg),Dxy(km),Dz(km)}
Center radii    : (undefined)
Small perturbers: Yes                             {source: SB441-N16}
Output units    : KM-S
Calendar mode   : Mixed Julian/Gregorian
Output type     : GEOMETRIC cartesian states
Output format   : 2 (position and velocity)
Reference frame : Ecliptic of J2000.0
*******************************************************************************
Initial IAU76/J2000 heliocentric ecliptic osculating elements (au, days, deg.):
  EPOCH=  2457839.5 ! 2017-Mar-27.00 (TDB)         Residual RMS= .24728        
   EC= .04928577040715748  QR= 2.55006887675004    TP= 2457265.1842963509      
   OM= 277.0126117049317   W=  315.5955215202133   IN= 7.681366338723192       
  Equivalent ICRF heliocentric cartesian coordinates (au, au/d):
   X= 2.730657836128774E+00  Y= 1.020759853725466E-01  Z= 4.475478556938177E-01
  VX=-6.369767531590638E-04 VY= 9.278874834038615E-03 VZ= 4.112093647729314E-03
Asteroid physical parameters (km, seconds, rotational period in hours):        
   GM= n.a.                RAD= 4.2535             ROTPER= 3.14354             
   H= 12.65                G= .150                 B-V= n.a.                   
                           ALBEDO= .322            STYP= n.a.                  
*******************************************************************************
JDTDB
   X     Y     Z
   VX    VY    VZ
*******************************************************************************
$$SOE
2460168.500000000 = A.D. 2023-Aug-12 00:00:00.0000 TDB 
 X =-3.648940308795680E+08 Y = 1.446143569962248E+08 Z =-4.625512057032271E+07
 VX=-5.864857616739577E+00 VY=-1.753439214397584E+01 VZ=-1.070475942567307E+00
$$EOE
*******************************************************************************
 
TIME

  Barycentric Dynamical Time ("TDB" or T_eph) output was requested. This
continuous coordinate time is equivalent to the relativistic proper time
of a clock at rest in a reference frame co-moving with the solar system
barycenter but outside the system's gravity well. It is the independent
variable in the solar system relativistic equations of motion.

  TDB runs at a uniform rate of one SI second per second and is independent
of irregularities in Earth's rotation.
 
CALENDAR SYSTEM

  Mixed calendar mode was active such that calendar dates after AD 1582-Oct-15
(if any) are in the modern Gregorian system. Dates prior to 1582-Oct-5 (if any)
are in the Julian calendar system, which is automatically extended for dates
prior to its adoption on 45-Jan-1 BC.  The Julian calendar is useful for
matching historical dates. The Gregorian calendar more accurately corresponds
to the Earth's orbital motion and seasons. A "Gregorian-only" calendar mode is
available if such physical events are the primary interest.

REFERENCE FRAME AND COORDINATES

  Ecliptic at the standard reference epoch

    Reference epoch: J2000.0
    X-Y plane: adopted Earth orbital plane at the reference epoch
               Note: IAU76 obliquity of 84381.448 arcseconds wrt ICRF X-Y plane
    X-axis   : ICRF
    Z-axis   : perpendicular to the X-Y plane in the directional (+ or -) sense
               of Earth's north pole at the reference epoch.

  Symbol meaning:

    JDTDB    Julian Day Number, Barycentric Dynamical Time
      X      X-component of position vector (km)
      Y      Y-component of position vector (km)
      Z      Z-component of position vector (km)
      VX     X-component of velocity vector (km/sec)                           
      VY     Y-component of velocity vector (km/sec)                           
      VZ     Z-component of velocity vector (km/sec)                           

ABERRATIONS AND CORRECTIONS

 Geometric state vectors have NO corrections or aberrations applied.

Computations by ...

    Solar System Dynamics Group, Horizons On-Line Ephemeris System
    4800 Oak Grove Drive, Jet Propulsion Laboratory
    Pasadena, CA  91109   USA

    General site: https://ssd.jpl.nasa.gov/
    Mailing list: https://ssd.jpl.nasa.gov/email_list.html
    System news : https://ssd.jpl.nasa.gov/horizons/news.html
    User Guide  : https://ssd.jpl.nasa.gov/horizons/manual.html
    Connect     : browser        https://ssd.jpl.nasa.gov/horizons/app.html#/x
                  API            https://ssd-api.jpl.nasa.gov/doc/horizons.html
                  command-line   telnet ssd.jpl.nasa.gov 6775
                  e-mail/batch   https://ssd.jpl.nasa.gov/ftp/ssd/hrzn_batch.txt
                  scripts        https://ssd.jpl.nasa.gov/ftp/ssd/SCRIPTS
    Author      : Jon.D.Giorgini@jpl.nasa.gov
*******************************************************************************
